start=new Date('2022-07-27T00:00:00.000Z').valueOf();
sats=[{"REV_AT_EPOCH":"8162","BSTAR":"-0.00001408300000","TLE_LINE2":"2 47565  53.0541 187.9126 0001890  59.0041 301.1133 15.06393214 81621","SEMIMAJOR_AXIS":"6925.369","MEAN_ELEMENT_THEORY":"SGP4","FILE":"3522226","TIME_SYSTEM":"UTC","RCS_SIZE":"LARGE","RA_OF_ASC_NODE":"187.9126","APOAPSIS":"548.543","GP_ID":"208898517","MEAN_ANOMALY":"301.1133","ELEMENT_SET_NO":"999","TLE_LINE1":"1 47565U 21009T   22207.33322627 -.00000491  00000-0 -14083-4 0  9996","PERIAPSIS":"545.925","NORAD_CAT_ID":"47565","PERIOD":"95.593","EPOCH":"2022-07-26T07:59:50.749728","DECAY_DATE":null,"INCLINATION":"53.0541","REF_FRAME":"TEME","OBJECT_NAME":"STARLINK-1964","COUNTRY_CODE":"US","MEAN_MOTION_DOT":"-0.00000491","ECCENTRICITY":"0.00018900","OBJECT_ID":"2021-009T","MEAN_MOTION":"15.06393214","ARG_OF_PERICENTER":"59.0041","CENTER_NAME":"EARTH","LAUNCH_DATE":"2021-02-04","SITE":"AFETR","MEAN_MOTION_DDOT":"0.0000000000000","OBJECT_TYPE":"PAYLOAD","CLASSIFICATION_TYPE":"U","EPHEMERIS_TYPE":"0"},{"PERIAPSIS":"545.853","PERIOD":"95.592","NORAD_CAT_ID":"47566","EPOCH":"2022-07-26T17:23:47.221440","DECAY_DATE":null,"MEAN_ANOMALY":"300.3926","ELEMENT_SET_NO":"999","TLE_LINE1":"1 47566U 21009U   22207.72485210 -.00000409  00000-0 -85230-5 0  9990","MEAN_ELEMENT_THEORY":"SGP4","RCS_SIZE":"LARGE","RA_OF_ASC_NODE":"176.1602","TIME_SYSTEM":"UTC","FILE":"3522469","GP_ID":"208929329","APOAPSIS":"548.593","BSTAR":"-0.00000852300000","REV_AT_EPOCH":"8182","SEMIMAJOR_AXIS":"6925.358","TLE_LINE2":"2 47566  53.0542 176.1602 0001978  59.7258 300.3926 15.06396913 81828","OBJECT_TYPE":"PAYLOAD","EPHEMERIS_TYPE":"0","CLASSIFICATION_TYPE":"U","CENTER_NAME":"EARTH","LAUNCH_DATE":"2021-02-04","MEAN_MOTION_DDOT":"0.0000000000000","SITE":"AFETR","OBJECT_ID":"2021-009U","ECCENTRICITY":"0.00019780","ARG_OF_PERICENTER":"59.7258","MEAN_MOTION":"15.06396913","REF_FRAME":"TEME","INCLINATION":"53.0542","COUNTRY_CODE":"US","OBJECT_NAME":"STARLINK-1965","MEAN_MOTION_DOT":"-0.00000409"},{"ARG_OF_PERICENTER":"65.7163","MEAN_MOTION":"15.06402152","OBJECT_ID":"2021-009V","ECCENTRICITY":"0.00016170","MEAN_MOTION_DOT":"0.00001030","COUNTRY_CODE":"US","OBJECT_NAME":"STARLINK-1966","REF_FRAME":"TEME","INCLINATION":"53.0533","CLASSIFICATION_TYPE":"U","EPHEMERIS_TYPE":"0","OBJECT_TYPE":"PAYLOAD","MEAN_MOTION_DDOT":"0.0000000000000","SITE":"AFETR","LAUNCH_DATE":"2021-02-04","CENTER_NAME":"EARTH","GP_ID":"208899519","APOAPSIS":"548.327","RCS_SIZE":"LARGE","RA_OF_ASC_NODE":"218.0766","FILE":"3522226","TIME_SYSTEM":"UTC","MEAN_ELEMENT_THEORY":"SGP4","SEMIMAJOR_AXIS":"6925.342","TLE_LINE2":"2 47567  53.0533 218.0766 0001617  65.7163 294.3995 15.06402152 81199","BSTAR":"0.00008802400000","REV_AT_EPOCH":"8119","DECAY_DATE":null,"EPOCH":"2022-07-26T07:08:04.606656","PERIOD":"95.592","NORAD_CAT_ID":"47567","PERIAPSIS":"546.087","TLE_LINE1":"1 47567U 21009V   22207.29727554  .00001030  00000-0  88024-4 0  9995","ELEMENT_SET_NO":"999","MEAN_ANOMALY":"294.3995"},{"MEAN_MOTION":"15.06392850","ARG_OF_PERICENTER":"59.5204","ECCENTRICITY":"0.00016020","OBJECT_ID":"2021-009W","MEAN_MOTION_DOT":"0.00000836","COUNTRY_CODE":"US","OBJECT_NAME":"STARLINK-1967","INCLINATION":"53.0541","REF_FRAME":"TEME","CLASSIFICATION_TYPE":"U","EPHEMERIS_TYPE":"0","OBJECT_TYPE":"PAYLOAD","SITE":"AFETR","MEAN_MOTION_DDOT":"0.0000000000000","LAUNCH_DATE":"2021-02-04","CENTER_NAME":"EARTH","APOAPSIS":"548.345","GP_ID":"208899261","TIME_SYSTEM":"UTC","FILE":"3522226","RA_OF_ASC_NODE":"217.3616","RCS_SIZE":"LARGE","MEAN_ELEMENT_THEORY":"SGP4","SEMIMAJOR_AXIS":"6925.370","TLE_LINE2":"2 47568  53.0541 217.3616 0001602  59.5204 300.5943 15.06392850 81226","REV_AT_EPOCH":"8122","BSTAR":"0.00007501500000","DECAY_DATE":null,"EPOCH":"2022-07-26T10:56:19.449888","NORAD_CAT_ID":"47568","PERIOD":"95.593","PERIAPSIS":"546.126","TLE_LINE1":"1 47568U 21009W   22207.45578067  .00000836  00000-0  75015-4 0  9996","ELEMENT_SET_NO":"999","MEAN_ANOMALY":"300.5943"},{"SEMIMAJOR_AXIS":"6761.401","TLE_LINE2":"2 47569  53.0595 112.0851 0004097  36.1595 323.9694 15.61520567 82753","REV_AT_EPOCH":"8275","BSTAR":"0.00038331000000","APOAPSIS":"386.036","GP_ID":"208929079","TIME_SYSTEM":"UTC","FILE":"3522469","RA_OF_ASC_NODE":"112.0851","RCS_SIZE":"LARGE","MEAN_ELEMENT_THEORY":"SGP4","TLE_LINE1":"1 47569U 21009X   22207.88620791  .00033072  00000-0  38331-3 0  9993","ELEMENT_SET_NO":"999","MEAN_ANOMALY":"323.9694","DECAY_DATE":null,"EPOCH":"2022-07-26T21:16:08.363424","NORAD_CAT_ID":"47569","PERIOD":"92.218","PERIAPSIS":"380.496","MEAN_MOTION_DOT":"0.00033072","OBJECT_NAME":"STARLINK-1968","COUNTRY_CODE":"US","INCLINATION":"53.0595","REF_FRAME":"TEME","MEAN_MOTION":"15.61520567","ARG_OF_PERICENTER":"36.1595","ECCENTRICITY":"0.00040970","OBJECT_ID":"2021-009X","SITE":"AFETR","MEAN_MOTION_DDOT":"0.0000000000000","LAUNCH_DATE":"2021-02-04","CENTER_NAME":"EARTH","CLASSIFICATION_TYPE":"U","EPHEMERIS_TYPE":"0","OBJECT_TYPE":"PAYLOAD"},{"PERIAPSIS":"545.913","PERIOD":"95.592","NORAD_CAT_ID":"47570","EPOCH":"2022-07-26T07:34:37.243776","DECAY_DATE":null,"MEAN_ANOMALY":"298.2707","ELEMENT_SET_NO":"999","TLE_LINE1":"1 47570U 21009Y   22207.31570884  .00001525  00000-0  12125-3 0  9991","MEAN_ELEMENT_THEORY":"SGP4","RCS_SIZE":"LARGE","RA_OF_ASC_NODE":"177.9807","FILE":"3522226","TIME_SYSTEM":"UTC","GP_ID":"208898268","APOAPSIS":"548.524","BSTAR":"0.00012125000000","REV_AT_EPOCH":"8176","SEMIMAJOR_AXIS":"6925.354","TLE_LINE2":"2 47570  53.0544 177.9807 0001885  61.8473 298.2707 15.06398373 81768","OBJECT_TYPE":"PAYLOAD","CLASSIFICATION_TYPE":"U","EPHEMERIS_TYPE":"0","CENTER_NAME":"EARTH","LAUNCH_DATE":"2021-02-04","SITE":"AFETR","MEAN_MOTION_DDOT":"0.0000000000000","OBJECT_ID":"2021-009Y","ECCENTRICITY":"0.00018850","ARG_OF_PERICENTER":"61.8473","MEAN_MOTION":"15.06398373","REF_FRAME":"TEME","INCLINATION":"53.0544","OBJECT_NAME":"STARLINK-1969","COUNTRY_CODE":"US","MEAN_MOTION_DOT":"0.00001525"},{"BSTAR":"0.00011591000000","REV_AT_EPOCH":"8162","TLE_LINE2":"2 47571  53.0542 187.9447 0001669  59.3822 300.7332 15.06397006 81628","SEMIMAJOR_AXIS":"6925.358","MEAN_ELEMENT_THEORY":"SGP4","RA_OF_ASC_NODE":"187.9447","RCS_SIZE":"LARGE","FILE":"3522226","TIME_SYSTEM":"UTC","GP_ID":"208899020","APOAPSIS":"548.379","MEAN_ANOMALY":"300.7332","ELEMENT_SET_NO":"999","TLE_LINE1":"1 47571U 21009Z   22207.32584641  .00001445  00000-0  11591-3 0  9996","PERIAPSIS":"546.067","PERIOD":"95.592","NORAD_CAT_ID":"47571","EPOCH":"2022-07-26T07:49:13.129824","DECAY_DATE":null,"REF_FRAME":"TEME","INCLINATION":"53.0542","OBJECT_NAME":"STARLINK-1970","COUNTRY_CODE":"US","MEAN_MOTION_DOT":"0.00001445","OBJECT_ID":"2021-009Z","ECCENTRICITY":"0.00016690","ARG_OF_PERICENTER":"59.3822","MEAN_MOTION":"15.06397006","CENTER_NAME":"EARTH","LAUNCH_DATE":"2021-02-04","MEAN_MOTION_DDOT":"0.0000000000000","SITE":"AFETR","OBJECT_TYPE":"PAYLOAD","EPHEMERIS_TYPE":"0","CLASSIFICATION_TYPE":"U"},{"OBJECT_ID":"2021-009AA","ECCENTRICITY":"0.00018760","ARG_OF_PERICENTER":"56.8307","MEAN_MOTION":"15.06396116","MEAN_MOTION_DOT":"-0.00000611","REF_FRAME":"TEME","INCLINATION":"53.0537","COUNTRY_CODE":"US","OBJECT_NAME":"STARLINK-1971","OBJECT_TYPE":"PAYLOAD","CLASSIFICATION_TYPE":"U","EPHEMERIS_TYPE":"0","LAUNCH_DATE":"2021-02-04","SITE":"AFETR","MEAN_MOTION_DDOT":"0.0000000000000","CENTER_NAME":"EARTH","RCS_SIZE":"LARGE","RA_OF_ASC_NODE":"187.7369","TIME_SYSTEM":"UTC","FILE":"3522226","GP_ID":"208899761","APOAPSIS":"548.525","MEAN_ELEMENT_THEORY":"SGP4","BSTAR":"-0.00002213000000","REV_AT_EPOCH":"8163","SEMIMAJOR_AXIS":"6925.360","TLE_LINE2":"2 47572  53.0537 187.7369 0001876  56.8307 303.2862 15.06396116 81632","EPOCH":"2022-07-26T08:58:13.206144","DECAY_DATE":null,"PERIAPSIS":"545.926","PERIOD":"95.592","NORAD_CAT_ID":"47572","ELEMENT_SET_NO":"999","TLE_LINE1":"1 47572U 21009AA  22207.37376396 -.00000611  00000-0 -22130-4 0  9996","MEAN_ANOMALY":"303.2862"},{"BSTAR":"-0.00002913800000","REV_AT_EPOCH":"8222","SEMIMAJOR_AXIS":"6925.365","TLE_LINE2":"2 47573  53.0526 187.8344 0001898  60.9640 299.1539 15.06394625 82228","RCS_SIZE":"LARGE","RA_OF_ASC_NODE":"187.8344","TIME_SYSTEM":"UTC","FILE":"3522402","GP_ID":"208905747","APOAPSIS":"548.544","MEAN_ELEMENT_THEORY":"SGP4","ELEMENT_SET_NO":"999","TLE_LINE1":"1 47573U 21009AB  22207.35165517 -.00000716  00000-0 -29138-4 0  9997","MEAN_ANOMALY":"299.1539","EPOCH":"2022-07-26T08:26:23.006688","DECAY_DATE":null,"PERIAPSIS":"545.916","PERIOD":"95.592","NORAD_CAT_ID":"47573","MEAN_MOTION_DOT":"-0.00000716","REF_FRAME":"TEME","INCLINATION":"53.0526","COUNTRY_CODE":"US","OBJECT_NAME":"STARLINK-1975","OBJECT_ID":"2021-009AB","ECCENTRICITY":"0.00018980","ARG_OF_PERICENTER":"60.9640","MEAN_MOTION":"15.06394625","LAUNCH_DATE":"2021-02-04","MEAN_MOTION_DDOT":"0.0000000000000","SITE":"AFETR","CENTER_NAME":"EARTH","OBJECT_TYPE":"PAYLOAD","EPHEMERIS_TYPE":"0","CLASSIFICATION_TYPE":"U"},{"TLE_LINE2":"2 47574  53.0535 217.4597 0001775  60.9159 299.2008 15.06402634 81218","SEMIMAJOR_AXIS":"6925.340","REV_AT_EPOCH":"8121","BSTAR":"0.00013678000000","MEAN_ELEMENT_THEORY":"SGP4","APOAPSIS":"548.435","GP_ID":"208898768","FILE":"3522226","TIME_SYSTEM":"UTC","RA_OF_ASC_NODE":"217.4597","RCS_SIZE":"LARGE","MEAN_ANOMALY":"299.2008","TLE_LINE1":"1 47574U 21009AC  22207.43368159  .00001756  00000-0  13678-3 0  9998","ELEMENT_SET_NO":"999","NORAD_CAT_ID":"47574","PERIOD":"95.592","PERIAPSIS":"545.976","DECAY_DATE":null,"EPOCH":"2022-07-26T10:24:30.089376","COUNTRY_CODE":"US","OBJECT_NAME":"STARLINK-1976","INCLINATION":"53.0535","REF_FRAME":"TEME","MEAN_MOTION_DOT":"0.00001756","MEAN_MOTION":"15.06402634","ARG_OF_PERICENTER":"60.9159","ECCENTRICITY":"0.00017750","OBJECT_ID":"2021-009AC","CENTER_NAME":"EARTH","MEAN_MOTION_DDOT":"0.0000000000000","SITE":"AFETR","LAUNCH_DATE":"2021-02-04","EPHEMERIS_TYPE":"0","CLASSIFICATION_TYPE":"U","OBJECT_TYPE":"PAYLOAD"}];
